Sl No,District,Teshil/Taluk,Area,Center_Type,Center_Name,Center_Address,Contact No,Pincode,Post_Office,Latitude,Longitude,Altitude
1,Ariyalur,Ariyalur,Ariyalur,Permanent,Collector Office,Collector Office Ariyalur,8508653194,621704,Ariyalur,11° 12.65' N,79° 21.75' E,80.70m
2,Ariyalur,Ariyalur(M),Ariyalur,Permanent,Ariyalur Municipality,Ariyalur Municipality,9865014799,621704,Ariyalur,11° 8.30' N,79° 4.50' E,246.80m
3,Ariyalur,Jayankondam(M),Udayarpalayam,Permanent,Jayankondam Municipality,Jayankondam Municipality,9659935665,621802,Jayamkondacholapuram,11° 12.41' N,79° 4.60' E,212.00m
4,Chennai,Chennai,Chennai,Permanent,Chennai Collector Office,"Singaravelar Maligai,Rajaji Salai",9940479376,600001,Chennai G.p,13° 5.77' N,80° 17.51' E,52.40m
5,Chennai,Nandanam,Chennai,Camp-Mode,Elcot Office,"Mhu Complex,Nandanam Chennai",9750704494,600035,Nandanam,13° 3.39' N,80° 14.31' E,143.00m
6,Chennai,Adayar,Chennai,Camp-Mode,Indusind Bank,Adayar,9362601128,600020,Adayar,12° 57.94' N,80° 14.90' E,3032.50m
7,Chennai,Royapettah,Chennai,Permanent,Indusind Bank,Royapettah,9884350474,600014,Royapettah,13° 2.52' N,80° 16.05' E,48.50m
8,Chennai,Velacherry,Chennai,Camp-Mode,Indusind Bank,Velachery 100ft Bypass Road Near Simran Appakadai,8508476916,600042,Velacherry,12° 56.28' N,80° 15.02' E,16.50m
9,Chennai,Madipakkam,Sholinganallur,Camp-Mode,Indusind Bank,23 Madavekkam Main Road Madipakkam,9626086029,600091,Madipakkam,12° 57.83' N,80° 11.26' E,37.90m
10,Chennai,Mogappair,Ambattur,Camp-Mode,Indusind Bank,Thiruvalluvar Nagar,9629468760,600037,Mogappair,13° 5.18' N,80° 10.75' E,-148.00m
11,Coimbatore,Coimbatore,Coimbatore South,Permanent,Coimbatorecity Municiple Corporation,Townhall Main Zone,9976273368,641001,Coimbatore,10° 59.61' N,76° 57.68' E,382.20m
12,Coimbatore,Coimbatore South,Coimbatore South,Permanent,Coimbatore Corporation,Coimbatore Corporation Office (East Zonal),9486300095,641005,Singanallur,11° .14' N,77° 1.77' E,119.70m
13,Coimbatore,Coimbatore South,Coimbatore South,Permanent,RS Puram,West Zone Rspuram Coimbatore,9942879685,641002,Rathinasabapathy Puram,11° .38' N,76° 57.17' E,431.20m
14,Coimbatore,Coimbatore South,Coimbatore South,Permanent,Corporation North Zone,Balasubramaniyam Road,8807121558,641037,Pappanaickenpalayam,11° .97' N,76° 58.66' E,339.00m
15,Coimbatore,Coimbatore South,Coimbatore South,Permanent,Centralzone,Coimbatore Corparation,9487691898,641018,Coimbatore Central,11° .19' N,76° 58.26' E,436.40m
16,Coimbatore,Coimbatore South,Coimbatore South,Permanent,Colletrate,Colletrate,9843800611,641018,Coimbatore Central,11° .01' N,76° 58.06' E,436.00m
17,Coimbatore,Coimbatore South,Coimbatore South,Permanent,Coimbatore Collectorate,Coimbatore Collectorate,7708572200,641018,Coimbatore Central,11° .01' N,76° 58.04' E,425.40m
18,Coimbatore,Goundampalayam,Coimbatore North,Permanent,Kavundapalayam,Kavundampalayam,8122363751,641030,Kavundampalayam Colony,11° 2.72' N,76° 56.11' E,1595.80m
19,Coimbatore,Kuniyamuthur,Coimbatore South,Permanent,Kuniyamuthur Zone,Coimbatore Corporation Kuniyamuthur,9943716180,641008,Kuniyamuthur,10° 57.42' N,76° 57.74' E,256.30m
20,Coimbatore,Mettupalayam,Mettupalayam,Permanent,Mettupalayam Zone,Mettupalayam Muncipality,9500510180,641301,Mettupalayam,11° 17.56' N,76° 56.46' E,334.70m
21,Coimbatore,Pollachi,Pollachi,Permanent,Pollachi,Pollachi Municipal Office,8526225205,642001,Pollachi,10° 39.52' N,77° .52' E,300.10m
22,Coimbatore,Vadavalli,Coimbatore South,Permanent,Vadavalli,"Corporation Office, Vadavalli",7708644320,641041,Vadavalli,11° 1.71' N,76° 54.14' E,459.30m
23,Coimbatore,Valparai,Valparai,Permanent,Valparai,"Valparai, Municipality",7598272904,642127,Valparai,10° 19.61' N,76° 57.32' E,684.00m
24,Cuddalore,Chidambaram,Chidambaram,Permanent,Chidambaram,Chidambaram Municipal Office,7373658623,608001,Chidambaram,11° 24.05' N,79° 41.26' E,12.50m
25,Cuddalore,Cuddalore,Cuddalore,Permanent,Govt Aadhaar Pec,Collectorate Office  Cuddalore,7373571946,607001,Cuddalore,11° 46.35' N,79° 45.50' E,221.70m
26,Cuddalore,Cuddalore,Cuddalore,Permanent,Cuddalore  Municipality,Bharthi Road Cuddalore 607001,9524010166,607001,Cuddalore,11° 45.17' N,79° 45.76' E,14.60m
27,Cuddalore,Nellikuppam,Panruti,Permanent,Municipal Office,Nellikuppam,8675689392,607105,Nellikkuppam ,11° 46.00' N,79° 33.15' E,35.80m
28,Cuddalore,Neyveli,Kurinjipadi,Permanent,Pec Elcot,"Govt. Aadhaar Pec,Election Office, Amphere Street, (Near Ration Shop Opposite) Block - 26, Neyveli.",9487154121,607803,Neyveli 3,11° 36.18' N,79° 29.29' E,72.20m
29,Cuddalore,Panruti,Panruti,Permanent,Panruti,Panruti Muncipalty,8489231699,607106,Panruti,11° 46.00' N,79° 33.16' E,34.30m
30,Cuddalore,Vadalur (tp),Kurinjipadi,Permanent,Vadalur Town Panchayath Office,"Vadalur Bus Stand, Vadalur(Tp)",9952789024,607303,Vadalur,11° 33.35' N,79° 33.37' E,47.90m
31,Cuddalore,Virudhachalam,Virudhachalam,Permanent,Virudhachalam Municipality,Ayyanar Kovil Street Virudhachalam,9659850704,606001,Virudhachalam,11° 30.75' N,79° 19.35' E,20.80m
32,Dharmapuri,Dharmapuri,Dharmapuri,Permanent,Dharmapuri Collector Office,Salam Main Road,7010934656,636705,Dharmapuri Collectorate,12° 6.31' N,78° 8.83' E,486.50m
33,Dharmapuri,Dharmapuri,Dharmapuri,Permanent,Dharmapuri,Dharmapuri Municipality,8508789906,636701,Dharmapuri,12° 7.85' N,78° 9.75' E,465.10m
34,Dindigul,Chettinaickenpatti,Dindigul,Permanent,District Collectorate Dindigul,"Room No. 32, District Collectorate, Dindigul",9688420135,624004,Dindigul Collectorate,10° 21.19' N,77° 58.56' E,324.40m
35,Dindigul,Dindigul,Dindigul,Permanent,Dindigul Corporation Hq,"13/9, Main Road, Corporation Office, Dindigul Corporation, Dindigul.",9655934208,624001,Dindigul,10° 23.48' N,77° 57.76' E,254.30m
36,Dindigul,Kodaikanal,Kodaikanal,Permanent,Kodaikanal Municipality,"Old Municipality Office,Moonjikal,Kodaikanal.",9003848245,624101,Kodaikanal,10° 14.33' N,77° 29.82' E,2053.00m
37,Dindigul,Palani,Palani,Permanent,Palani Municipality,"The Commissioner,Municipal Office,3/166,Ghanthi Road,Palani.",8675014654,624601,Palani,10° 27.14' N,77° 30.75' E,393.00m
38,Dindigul,Pallapatti,Dindigul,Permanent,Corporation Zone,"35 State Highway,Asst Commissioner Office,Begambur,Dindigul.",8608675514,624002,Begampur,10° 20.87' N,77° 58.17' E,3215.70m
39,Erode,Bhavani,Bhavani,Permanent,Bhavani Municipal,Varnapuram 2nd St,9150605123,638301,Bhavani,11° 27.15' N,77° 41.09' E,384.50m
40,Erode,Erode,Erode,Permanent,Tn Government Aadhaar Center,"185,Radhakrishnan Salai,Teachers Colony,Erode.638011",9688305876,638011,Erode Collectorate,11° 23.98' N,77° 41.39' E,214.90m
41,Erode,Erode,Erode,Permanent,District Collectorate,Perundurai Road Erode,9486276962,638011,Erode Collectorate,11° 17.39' N,77° 40.28' E,265.70m
42,Erode,Erode,Erode,Permanent,Surampatti,Surampatti,8012398232,638002,Erode Railway Colony,11° 19.19' N,77° 42.81' E,458.00m
43,Erode,Erode,Erode,Permanent,Kasipalayam,Kasipalayam,8760129947,638001,Erode,11° 20.39' N,77° 43.54' E,73.00m
44,Erode,Erode,Erode,Permanent,Erode District Collector Office,Perundurai Road,9486276962,638011,Erode Collectorate,11° 20.00' N,77° 42.48' E,175.50m
45,Erode,Erode,Erode,Permanent,Erode Municipal Corporation Hq,"Opp Periyamariyamman Kovil, Brough Road",8344778892,638001,Erode,11° 19.89' N,77° 42.38' E,191.80m
46,Erode,Gobichettipalayam,Gobichettipalayam,Permanent,Gobichettipalayam Municipal Office,"Kutchery Medu,Sathy Main Road",9444439398,638452,Gobichettipalayam,11° 27.29' N,77° 25.68' E,225.20m
47,Erode,Periyasemur,Erode,Permanent,Periyasemur,"Erode Zonal 2, E P B Nagar, Periyasemur, Erode-4",9976324517,638004,Peria Semur,11° 21.33' N,77° 41.67' E,187.80m
48,Erode,Punjaipuliampatti,Sathyamangalam,Permanent,Punjai Puliyampatti Municipal Office,"Near Bus Stand, Sathy Main Road, Punjai Puliyampatti",9942030507,638459,Punjai Puliampatti,11° 21.04' N,77° 10.05' E,260.80m
49,Erode,Sathyamangalam,Sathyamangalam,Permanent,Sathyamangalam Municipal,Sathymangalam Municipality Office Sathy-638402,9843920664,638402,Rangasamudram,11° 30.09' N,77° 14.74' E,283.60m
50,Erode,Suriyampalayam,Erode,Permanent,Suriampalayam(Z0ne1),Bhavani Main Road R N Pudur Post,9750276962,638005,Ramanathapuram Pudur,11° 20.02' N,77° 42.50' E,174.10m
51,Kancheepuram,Anakaputhur,Anakaputhur,Permanent,TN Govt SPR-Aadhaar PEC,Anakaputhur Municipality,9047466585,600070,Anakaputhur,12° 58.80' N,80° 7.70' E,78.90m
52,Kancheepuram,Chengalpattu,Chengalpattu,Permanent,Chengalpattumunici(Pality,Chengalpattumunici(Pality,9566914407,603002,Natham-chengalpattu,12° 42.34' N,79° 58.67' E,69.90m
53,Kancheepuram,Chromepet,Alandur,Permanent,Pallavaram Municipality,Pallavaram Municipality,9941440144,600044,Chromepet,12° 59.53' N,80° 5.42' E,3994.60m
54,Kancheepuram,Kancheepuram,Kancheepuram,Permanent,Collector Office,Vanthavasi Road Collector Office,9787263663,631501,Kanchipuram,12° 49.37' N,79° 41.94' E,82.90m
55,Kancheepuram,Kancheepuram,Kancheepuram,Permanent,Kancheepuram Municipality,Annai Indhira Gandhi Salai,9585669180,631501,Kanchipuram,12° 50.33' N,79° 42.17' E,84.60m
56,Kancheepuram,Maduranthakam,Maduranthakam,Camp-Mode,Mathuranthagam Municipality,Mathuranthagam Municipality,9176869347,603306,Madurantakam,12° 30.67' N,79° 53.14' E,29.40m
57,Kancheepuram,Maraimalainagar,Chengalpattu,Permanent,Maraimalainagar,Maraimalainagar Municipalicy,8680040341,603209,Maraimalai Nagar,12° 48.16' N,80° 1.52' E,83.50m
58,Kancheepuram,Maraimalainagar,Chengalpattu,Permanent,Maraimalainagar Municipality,Maraimalainagar Municipality,9677920286,603209,Maraimalai Nagar,12° 48.03' N,80° 1.50' E,-87.50m
59,Kancheepuram,Pallavaram,Pallavaram,Permanent,Pallavaram Municipality,Pallavaram Municipality,8680918372,600043,Pallavaram,12° 56.74' N,80° 8.10' E,1293.10m
60,Kancheepuram,Pammal,Pammal,Permanent,Pammal Municipality,Pammal Municipality,9789317633,600075,Pammal,12° 58.50' N,80° 8.12' E,54.50m
61,Kancheepuram,Sembakkam,Sembakkam,Camp-Mode,Sembakkam,Sembakkam Municipality,9865812014,600073,Sembakkam,12° 55.35' N,80° 9.24' E,83.00m
62,Kancheepuram,Tambaram,Tambaram,Permanent,Tambaram Munici[Pality,Tambaram Munici[Pality,9176002184,600045,Tambaram,12° 55.73' N,80° 7.05' E,69.20m
63,Kanniyakumari,Agasteeswaram,Agastheeswaram,Permanent,Nagercoil,Collector Office,9159280750,629001,Nagercoil,8° 10.72' N,77° 25.45' E,57.70m
64,Kanniyakumari,Kalkulam,Kalkulam,Permanent,Padmanabhapurammuncipalty,Padmanabhapuram Thuckalay,8883076918,629175,Thuckalay,8° 14.36' N,77° 19.12' E,440.00m
65,Kanniyakumari,Kalkulam,Kalkulam,Permanent,Colachel Municipality,Kannadhason Vaniga Valagam,9043226499,629251,Colachel,8° 10.77' N,77° 15.25' E,38.10m
66,Kanniyakumari,Nagercoil,Agastheeswaram,Permanent,Nagercoil Municipal,Nagercoil Municipal Office,9791960784,629001,Nagercoil,8° 11.09' N,77° 25.85' E,74.70m
67,Kanniyakumari,Vilavancode,Vilavancode,Permanent,Kuzhithurai Muncipalty,Kulithurai Muncipalty Vettuvenni Marthandam,7639490364,629165,Marthandam,8° 18.53' N,77° 12.69' E,74.50m
68,Karur,Karur,Karur,Permanent,Karur Municipality,Karur Municipality Office,9789402906,639001,Karur,10° 57.55' N,78° 4.94' E,959.30m
69,Karur,Kulithalai,Kulithalai,Permanent,Kulithalai Municipalaity,Kulithalai Municipality Office,9698688672,639104,Kulittalai,10° 56.15' N,78° 25.40' E,86.50m
70,Karur,Thanthoni,Karur,Permanent,Karur Collectorate,Karur Collectorate Office,9751629280,639007,Karur Collectorate,10° 55.09' N,78° 5.50' E,154.60m
71,Krishnagiri,Hosur,Hosur,Permanent,Hosur Municipal,Hosur Municipal,9585908667,635109,Hosur,12° 45.58' N,77° 50.18' E,923.60m
72,Krishnagiri,Krishnagiri,Krishnagiri,Permanent,Krishnagiri Municipalty,"Gandhi Road, Krishnagiri",9940995058,635001,Krishnagiri,12° 31.53' N,78° 13.21' E,971.40m
73,Krishnagiri,Krishnagiri,Krishnagiri,Permanent,Krishnagiri,Krishnagiri,9940928160,635001,Krishnagiri,12° 33.09' N,78° 11.88' E,532.80m
74,Madurai,Alavandan,Madurai North,Permanent,North Zone,Near Thamarai Thotti K Pudur,9789115887,625020,Gandhi Nagar (ma),9° 56.56' N,78° 8.65' E,126.70m
75,Madurai,Anaiyur,Madurai North,Permanent,Anaiyur Zone-1 Extn,"Anaiyur Busstand Backside,Anaiyur",9159454079,625017,Anaiyur,9° 57.63' N,78° 6.59' E,249.50m
76,Madurai,Madurai,Madurai North,Permanent,Dist Collectorate,Near Annabustand Collectrate Road,7598318919,625002,Vandiyur,9° 55.66' N,78° 8.33' E,185.30m
77,Madurai,Madurai,Madurai South,Permanent,Southzone,Near Rani Mangammal Chathram,9952886778,625001,Madurai,9° 55.29' N,78° 6.71' E,128.70m
78,Madurai,Madurai South,Madurai South,Permanent,South Zone,Mangammal Sathiram,9787345450,625001,Madurai,0° .00' N,0° .00' E,.00m
79,Madurai,Madurai South,Madurai South,Permanent,Zone,"Western Park Hotel Near, Junction Backside, Mahaboobpalayam",9787345450,625016,Arasaradi,9° 55.17' N,78° 6.44' E,346.90m
80,Madurai,Melur,Melur,Permanent,Melur,"Melur Municipality, Thiruvathavur Road, Melur",9087254256,625106,Melur,10° 1.72' N,78° 20.24' E,125.90m
81,Madurai,Munichalai Road,Madurai South,Permanent,East Zone,Munichalai,9488556807,625009,Munichalai Road,9° 54.91' N,78° 8.00' E,189.70m
82,Madurai,Thirumangalam,Thirumangalam,Permanent,Thirumangalam Municipal,Thirumangalam,9176144054,625706,Thirumangalam,9° 49.42' N,77° 59.28' E,147.10m
83,Madurai,Usilampatti,Usilampatti,Permanent,Usilampatti,"Mamarathupatti Road, Usilampatti",9751945864,625532,Usilampatti,9° 58.09' N,77° 47.02' E,226.10m
84,Nagapattinam,Mayiladuthurai,Mayiladuthurai,Permanent,Mayiladuthurai Munucipal,Munucipal In Mayiladuthurai And Sub Jail Oppted,7418581316,609001,Mayiladuthurai,11° 5.79' N,79° 39.20' E,29.70m
85,Nagapattinam,Nagappattinam,Nagapattinam,Permanent,Nagapattinam Collectorate,"Tamilnadu Iti Near,Eoc Department Building.Nagapattinam Collectrote",9698005559,611003,Nagapattinam Collectorate,10° 47.72' N,79° 50.03' E,613.30m
86,Nagapattinam,Nagappattinam,Nagapattinam,Permanent,Nagapattinammc,Nagapattinam Municipality Office,9751901318,611001,Nagapattinam,10° 46.94' N,79° 50.38' E,3.60m
87,Nagapattinam,Sirkali,Sirkali,Permanent,Sirkali Municipality,Kamarajar Street,8056330774,609110,Sirkali,11° 14.42' N,79° 44.22' E,65.80m
88,Nagapattinam,Vedaranyam,Vedaranyam,Permanent,Vedaranyammc,Rajai Park Ttp Road Vedaranyam Municipalty Ofice,9578572624,614810,Vedaraniam,10° 22.48' N,79° 50.85' E,15.20m
89,Namakkal,Komarapalayam,Tiruchengode,Permanent,Komarapalayam,Municipal Office Komarapalayam,8015963808,638183,Komarapalayam (so),11° 26.49' N,77° 41.38' E,174.80m
90,Namakkal,Namakkal,Namakkal,Permanent,Namakkal,Municipal Namakkal,7871660077,637001,Namakkal,11° 22.62' N,77° 53.69' E,261.50m
91,Namakkal,Namakkal,Namakkal,Permanent,Namakkal,Municipal Office Namakkal,9715647314,637001,Namakkal,0° .00' N,0° .00' E,.00m
92,Namakkal,Rasipuram,Rasipuram,Permanent,Namakkal,Rasipuram Municipality,9443969285,637408,Rasipuram,11° 27.72' N,78° 11.60' E,241.00m
93,Namakkal,Thummankurichi,Namakkal,Permanent,Elcot Aadhaar Enrollment Centre Collector Office,District Collectrate Namakkal,8973089173,637003,Thummankurichi,11° 14.97' N,78° 7.66' E,224.50m
94,Namakkal,Tiruchengode,Tiruchengode,Permanent,Thiruchengode,Municipality Office Thiruchengode,9788860604,637211,Tiruchengodu,11° 22.62' N,77° 53.70' E,238.40m
95,Perambalur,Perambalur,Perambalur,Permanent,154710-Perambalur Collector Office,Perambalur Collector Office,8825421094,621212,Perambalur,11° 13.12' N,78° 52.46' E,292.60m
96,Perambalur,Perambalur,Perambalur,Permanent,Municipality,Municipality Office Perambalur,9894945858,621212,Perambalur,11° 13.46' N,78° 52.54' E,131.00m
97,Pudukkottai,Aranthangi,Aranthangi,Permanent,Aranthangi Municipality,"Kottai - 1 Municipality Office Road, Aranthangi.",9994593388,614616,Arantangi,10° 10.10' N,78° 59.43' E,-2.70m
98,Pudukkottai,Pudukkottai,Pudukkottai,Permanent,Pudukkottai Collectrate,"Pudukkottai District Collector Office,Collector Office Road,Near Santhaipettai",9585998572,622005,Pudukkottai Collectrate,0° .00' N,0° .00' E,.00m
99,Pudukkottai,Pudukkottai,Pudukkottai,Permanent,Pudukkottai Municipality,"Near Town Police Station, Old Municipality Road, Pudukkottai",9943899024,622001,Pudukkottai,10° 22.95' N,78° 49.18' E,66.80m
100,Ramanathapuram,Ariyanendal,Paramakudi,Permanent,Paramakudi Municipality,Municipality,9843279592,623707,Paramakudi,9° 32.92' N,78° 35.42' E,59.50m
101,Ramanathapuram,Keelakarai,Ramanathapuram,Permanent,Keelakaraimunicipality,Keelakarai Municipality,8012420047,623517,Keelakarai,9° 14.03' N,78° 47.14' E,-100.10m
102,Ramanathapuram,Ramanathapuram,Ramanathapuram,Permanent,Ramanathapuram Collectorate,"Ramanathapuram Collectorate,Ramanathapuram",8760181889,623503,Ramanathapuram Collectorate,9° 21.60' N,78° 51.63' E,4.20m
103,Ramanathapuram,Ramanathapuram,Ramanathapuram,Permanent,Ramanathapuram Municipality,Ramanathapuram Municipality,8220505060,623501,Ramanathapuram,9° 22.08' N,78° 49.96' E,30.20m
104,Ramanathapuram,Rameswaram,Rameswaram,Permanent,Rameswaram,Rameswaram Municipality,7708168817,623526,Rameswaram,9° 17.09' N,79° 18.81' E,20.30m
105,Salem,Attur,Attur,Permanent,Elcot Spr Aadhaar Parmanent Enrolment Center,"Municipal Office, Ranipet Main Road Attur",9688280660,636102,Attur,11° 35.94' N,78° 35.99' E,230.40m
106,Salem,Edapady,Edappadi,Permanent,Edappadi Municipal,Edappadi Municipal Salem,9659791244,637101,Edapady,0° .00' N,0° .00' E,.00m
107,Salem,Mettur,Mettur,Permanent,Mettur Municipal,"Mettur Municipality Mettur Dam-1,Pin-636401",9659724223,636401,Metturdam,11° 46.97' N,77° 47.98' E,198.10m
108,Salem,Salem,Salem,Permanent,Kondalampatti Zonal Office,Dadagapatty Gate Bus Stop Opposite,9791787403,636006,Salem South,11° 38.07' N,78° 8.97' E,282.70m
109,Salem,Salem,Salem,Permanent,Hasthampatti,"Hasthampatti Ward Office, Salem-7.",8056765959,636007,Hasthampatti,11° 40.52' N,78° 9.52' E,294.70m
110,Salem,Salem,Salem,Permanent,Main Corporation,Muncipality Head Quarters,9789720739,636007,Hasthampatti,11° 39.39' N,78° 9.42' E,269.50m
111,Salem,Salem,Salem,Permanent,Salem Collectorate,Salem Collectorate Office,9944417768,636001,Salem,11° 39.39' N,78° 9.42' E,269.10m
112,Salem,Salem,Salem,Permanent,Suramangalamzone,Suramangalam Zonal Office Old Suramangalam,8526011072,636005,Suramangalam,0° .00' N,0° .00' E,.00m
113,Salem,Salem,Salem,Permanent,Ammapet,"Ammapet Zone 3,Salem 3",7708870902,636003,Ammapet,11° 39.46' N,78° 10.66' E,297.50m
114,Salem,Salem,Salem,Permanent,Narasingapuram Zone,Narasingapuram,8760659572,636108,Narasingapuram,11° 36.36' N,78° 34.45' E,223.40m
115,Sivaganga,Devakottai,Devakottai,Permanent,Devakkottai Municipality,"Opp. To Bus Stand, Thiruppattur Road, Devakkottai.",9791430623,630302,Devakottai,9° 56.91' N,78° 49.21' E,50.80m
116,Sivaganga,Enathi,Manamadurai,Permanent,Sivagangaidchq,"Sivagangai Collectorate,Sivagangai",8110805565,630561,Sivaganga,0° .00' N,0° .00' E,.00m
117,Sivaganga,Karaikkudi,Karaikkudi,Permanent,Karaikudi Municipality,"Karaikudi Municipality,100 Feet Road, Near New Bus Stand, Karaikudi.",8939300781,630001,Karaikudi,10° 4.41' N,78° 46.84' E,117.30m
118,Sivaganga,Sivaganga,Sivaganga,Permanent,Sivagangai Municipalty,150/1 Sivagangai Municipalty,9626549794,630561,Sivaganga,9° 51.66' N,78° 29.40' E,139.30m
119,Thanjavur,Kumbakonam,Kumbakonam,Permanent,Kumbakonam,Kumbakonam Municipality Kumbakonam,9943864514,612001,Kumbakonam,10° 58.09' N,79° 23.11' E,70.90m
120,Thanjavur,Pattukkottai,Pattukkottai,Permanent,Pattukkottai Municipality,1 Kasangulam Thenkarai,8270980020,614601,Pattukottai,10° 25.45' N,79° 19.24' E,52.20m
121,Thanjavur,Thanjavur,Thanjavur,Permanent,District Collectorate,District Collectorate Trichy Main Road,7373442221,613010,Tamil University,10° 43.92' N,79° 2.74' E,146.40m
122,Thanjavur,Thanjavur,Thanjavur,Permanent,Munipality Head Quater,Near Old Busstand,8760473038,613001,Thanjavur,10° 47.15' N,79° 8.31' E,33.80m
123,Thanjavur,Thanjavur,Thanjavur,Permanent,Zonal,Near Old Busstand,9677757156,613001,Thanjavur,10° 47.14' N,79° 8.31' E,74.40m
124,The Nilgiris,Coonoor,Coonoor,Permanent,Coonoor,Municipal Office Coonoor,9940957888,643102,Coonoor Rs,11° 20.59' N,76° 47.50' E,1747.00m
125,The Nilgiris,Gudalur,Gudalur,Permanent,Tn Govt Spr-Aadhaar Center,"R D O Gudalur,Municipality",8870275494,643212,Gudalur Bazaar,11° 30.13' N,76° 29.56' E,616.10m
126,The Nilgiris,Udhagamandalam,Udhagamandalam,Permanent,Tn Govt Spr-Aadhaar Centre,"Ooty Collectorate, Near Stephen Church, Ooty",9442034367,643001,Udagamandalam,11° 24.76' N,76° 42.16' E,2242.30m
127,The Nilgiris,Nellipalayam,Nellipalayam,Permanent,Nellipalayam,Nellipalayam,8754799490,643211,Nellipalayam,11° 29.10' N,76° 20.30' E,963.40m
128,Theni,Bodinayackanur,Bodinayakanur,Permanent,Bodinayakanur Municipal Office,"The Municipal Office, Near Aranmanai Bus Stop, Bodinayakkanur-625513, Theni District.",9940913245,625513,Bodinayakanur,10° .95' N,77° 21.16' E,381.40m
129,Theni,CHINNAMANUR,Uthamapalayam,Permanent,Chinnamanur Vao Office,"Theradi Street,Near Town Police Station,Vao Office Backside,Chinnamanur",9865574744,625515,Chinnamanur,10° .90' N,77° 21.18' E,294.80m
130,Theni,GUDALUR,Uthamapalayam,Permanent,Gudalur Municipal,"Gudalur Municipal, Near  By Kamatchiamman School,Gudalur",8489542819,625518,Gudalur,10° 7.30' N,77° 32.36' E,271.50m
131,Theni,Kambam (m),Uthamapalayam,Permanent,Cumbam Municipalty,"GH Road, Cumbam, Theni District",9943967976,625516,Cumbum,10° 1.29' N,77° 29.16' E,94.20m
132,Theni,Theni,Theni,Permanent,Theni Collector Office,"Theni Collector Office ,MARURAI Main Road ,THENI",9789678558,625531,Theni,9° 59.71' N,77° 30.18' E,376.50m
133,Theni,Theni,Theni,Permanent,Theni-Allinagaram,Theni Allinagaram Municipal Vivek Honda Bike Company Opp Theni,9659717274,625531,Theni,10° 1.27' N,77° 28.79' E,335.10m
134,Theni,THENKARAI,Periyakulam,Permanent,V.Prabhukumar Periyakulam Municipality,"Periyakulam Municipality, Near Gh Road, Thenkarai,Periyakulam",9600679094,625601,Periyakulam,10° 7.33' N,77° 32.34' E,277.40m
135,Thiruvarur,Kuthanallur,Needamangalam,Permanent,Pec Koothanallur Municipality,"Koothanallur Municipality , A. R Road Koothanallur",9943807211,614101,Koothanallur,10° 42.81' N,79° 30.98' E,66.10m
136,Thiruvarur,Mannargudi,Mannargudi,Permanent,Mannargudi,Mannargudi Munucipal,7373168289,614001,Mannargudi,10° 38.55' N,79° 28.56' E,10.40m
137,Thiruvarur,Thiruthuraipoondi,Thiruthuraipoondi,Permanent,Municipality,Thiruthuraipoondi Minicipality,9843064586,614713,Tiruturaipundi,10° 32.10' N,79° 38.23' E,16.80m
138,Thiruvarur,Thiruvarur,Thiruvarur,Permanent,Thiruvarur,Collector Office,9626459365,610001,Thiruvarur,10° 46.46' N,79° 37.91' E,40.70m
139,Thiruvarur,Thiruvarur,Thiruvarur,Permanent,Thiruvarur Municipality,Thiruvarur Municipality,7010205057,610004,Tiruvarur Collectorate ,10° 46.85' N,79° 36.40' E,58.40m
140,Thoothukkudi,Kayalpatnam,Tiruchendur,Permanent,Kayalpattanam,Kayalpatnam Municipal,8122358070,628204,Kayalpatnam,8° 33.81' N,78° 7.25' E,9.50m
141,Thoothukkudi,Korampallam,Thoothukkudi,Permanent,Collectorate,"Collector Office ,KORAMPALLAM,THOOTHUKUDI",9791567255,628101,Korampollam,8° 47.01' N,78° 5.99' E,12.20m
142,Thoothukkudi,Kovilpatti,Kovilpatti,Permanent,Kovilpatti Municipal,Kovilpatti Municipal School Campus,9025098763,628501,Kovilpatti,9° 10.59' N,77° 52.46' E,103.10m
143,Thoothukkudi,Thoothukkudi,Thoothukkudi,Permanent,Thoothukudi South Zone,"Oldpanjayat Office, Muthaiyapuram,Thoothukudi",9629721731,628005,Muthiahpuram,8° 45.10' N,78° 7.72' E,67.90m
144,Thoothukkudi,Thoothukkudi,Thoothukkudi,Permanent,North Zone,"North Zoneoffice,Thoothukudi",8012005778,628002,Melur Tuticorin,8° 48.96' N,78° 8.40' E,8.80m
145,Thoothukkudi,Thoothukkudi,Thoothukkudi,Permanent,West Zone,Miller Puram,8056396654,628008,Chidambaranagar,8° 47.97' N,78° 7.59' E,15.40m
146,Thoothukkudi,Thoothukkudi,Thoothukkudi,Permanent,Thoothukudi Municipal East Zone,Thoothukudi  Old Municipal Great Cotton Road,8489412808,628002,Melur Tuticorin,8° 48.26' N,78° 9.22' E,16.20m
147,Thoothukkudi,Thoothukkudi,Thoothukkudi,Permanent,Municipal HQ,Municipal HQ,9629788682,628001,Korampollam,,,
148,Tiruchirappalli,Manapparai,Manapparai,Permanent,Manaparai Municipality,"Manaparai Municipality, Madurai Road, Manaparai",8344464554,621306,Manaparai,10° 36.26' N,78° 25.03' E,160.30m
149,Tiruchirappalli,Srirangam,Srirangam,Permanent,Srirangam Munnicipal,Old Gh Opp,9629499308,620006,Srirangam,10° 51.48' N,78° 41.48' E,101.70m
150,Tiruchirappalli,Thuraiyur,Thuraiyur,Permanent,Thuraiyur Municipality,Old Municipality Office,8124506704,621010,Turaiyur,11° 8.78' N,78° 35.73' E,158.90m
151,Tiruchirappalli,Thuvakudi (m),Thiruverumbur,Permanent,Thuvakudi Municipality,"Thuvakudi Municipality Office,Tanjore Road, Thuvakudi",7810918789,620015,Thuvakudi,10° 45.13' N,78° 49.31' E,93.30m
152,Tiruchirappalli,Tiruchirappalli,Tiruchirappalli,Permanent,Ariyamangalam Zonal Office,"Ariyamangalam Zonal Office,Palakkarai",9944931130,620001,Tiruchirappalli,10° 49.19' N,78° 41.72' E,589.10m
153,Tiruchirappalli,Tiruchirappalli,Tiruchirappalli,Permanent,Trichy Head Quarters,"Trichy City Corporation,Contonment",9500869113,620001,Tiruchirappalli,10° 48.37' N,78° 41.08' E,120.30m
154,Tiruchirappalli,Tiruchirappalli,Tiruchirappalli,Permanent,District Collector Office,"District Collector Office, Trichy",9566874755,620001,Tiruchirappalli,10° 48.00' N,78° 40.39' E,90.50m
155,Tiruchirappalli,Tiruchirappalli,Tiruchirappalli,Permanent,Ponmalai Zonal,"Trichy Munisipality,Cantonment,Near Campion School Opp",9597641179,620001,Tiruchirappalli,10° 48.37' N,78° 41.10' E,29.20m
156,Tiruchirappalli,Tiruchirappalli,Tiruchirappalli,Permanent,Koabishekapuram,"Koabishekapuram Zonal Office,Vayalur Road",9865962872,620017,Tennur,10° 48.79' N,78° 40.65' E,22.70m
157,Tirunelveli,Ambasamudram,Ambasamudram,Permanent,Ambasamudram Municipality,Near Pookadai Stop,9940977622,627401,Ambasamudram,8° 42.17' N,77° 27.34' E,90.80m
158,Tirunelveli,Kadayanallur,Kadayanallur,Permanent,Kadayanallur Municipality,Main Road,9600894161,627751,Kadayanallur,9° 4.90' N,77° 20.79' E,202.70m
159,Tirunelveli,Palayamkottai,Palayamkottai,Permanent,Tn Govt Elcot Spr-Aadhaar Permanent Enrollment Center ( Melapalayam Corporation Zonal ),"Near Corporation Marriage Mahal, Melapalayam Corporation Zonal Office, Nethaji Road",9597422731,627005,Melapalayam,8° 41.92' N,77° 42.23' E,1617.00m
160,Tirunelveli,Palayamkottai,Palayamkottai,Permanent,Elcot Spr-Aadhaar Permanent Enrollment Center ( Palayamkottai Corporation Zonal ),"Near Tirunelveli Sidha College, Palay Corporation Zonal Office, Tiruvandrum Road, Palayamkottai",8124174415,627002,Palayamkottai,8° 43.37' N,77° 43.93' E,72.60m
161,Tirunelveli,Palayamkottai,Palayamkottai,Permanent,Colleterate,Collector Office Kokkirakulam,8870041640,627009,Tirunelveli Collectorate,8° 43.54' N,77° 42.95' E,74.60m
162,Tirunelveli,Pettai,Tirunelveli,Permanent,Elcot Spr-Aadhaar Permanent Enrollment Center ( Tirunelveli Corporation Zonal ),"Near Pettai Government Hospital, Pettai Corporation Tax Counter, Cheranmahadevi Road",9944417644,627004,Tirunelveli Pettai,8° 43.34' N,77° 39.56' E,68.40m
163,Tirunelveli,Puliangudi,Kadayanallur,Permanent,Puliangudi,Puliangudi Municipal,8940032857,627855,Puliangudi,9° 10.97' N,77° 23.65' E,229.70m
164,Tirunelveli,Sankarankoil,Sankarankoil,Permanent,Elcot Pec-Sankarankovil Municipality,Main Road Near Bus Stand,9965645801,627756,Sankarankovil,9° 10.42' N,77° 32.09' E,158.30m
165,Tirunelveli,Shenkottai,Shenkottai,Permanent,Elcot Spr-Aadhaar Permanent Enrollment Center ( Shenkottai Municipality ),"Opposite Senkottai Bus Stand, Shenkottai Municipal Office, Kp Road",9865188576,627809,Senkottai,8° 58.52' N,77° 15.00' E,494.90m
166,Tirunelveli,Tenkasi,Tenkasi,Permanent,Elcot Spr-Aadhaar Permanent Enrollment Center ( Tenkasi Municipality ),"Near Postoffice Stop, Tenkasi Municipal Office, 85 Anaikkarai Street",9842176962,627811,Tenkasi,8° 57.22' N,77° 18.76' E,156.00m
167,Tirunelveli,Tirunelveli,Tirunelveli,Permanent,Elcot Spr-Aadhaar Permanent Enrollment Center ( Tatchainallur Corporation Zonal ),"Near Daily Thanthi Office, Tatchainallur Corporation Zonal Office Madurai Road Tirunelveliq",9524849609,627001,Tirunelveli,8° 43.91' N,77° 42.56' E,56.10m
168,Tirunelveli,Tirunelveli,Tirunelveli,Permanent,Elcot Spr-Aadha,"Near Scaffter Hr Sec School, Tirunelveli Corporation Head Quarters Office, S.N High Road",9750044196,627001,Tirunelveli,8° 43.70' N,77° 41.84' E,92.90m
169,Tirunelveli,Vikramasingapuram,Ambasamudram,Permanent,Elcot Spr-Aadhaar Permanent Enrollment Center ( Vikramasingapuram Municipality ),"Near Moonlamp Stop, V.K Puram Municipal Office, Papanasam Main Road",9952257766,627425,Vikramasingapuram,8° 42.83' N,77° 23.35' E,392.80m
170,Tiruppur,Andipalayam,Tiruppur,Permanent,Andipalayam,"Vidyalayam Road , Murugampalayam",9095266278,641687,Andipalayam,11° 5.60' N,77° 18.85' E,998.60m
171,Tiruppur,Dharapuram,Dharapuram,Permanent,Dharapuram Municipality Office,Church Road Dharapuram,9894476911,638656,Dharapuram,10° 44.12' N,77° 31.57' E,260.70m
172,Tiruppur,Dharapuram,Dharapuram,Permanent,Dharapuramrdo,Pollachi Road Dharapuram,9500871516,638656,Dharapuram,10° 44.00' N,77° 30.19' E,537.40m
173,Tiruppur,Kangeyam,Kangeyam,Permanent,Kangayam,"Karur Main Road,Kangayam",9787270432,638701,Kangayam,11° .16' N,77° 33.70' E,296.50m
174,Tiruppur,Palladam,Palladam,Permanent,Palladammunicipality,"Trichy Road, Palladam",9976994167,641664,Palladam,10° 59.68' N,77° 17.17' E,404.80m
175,Tiruppur,Tiruppur,Tiruppur,Permanent,Collectorate,Palladam Road Collector,9488570778,641604,T.c.market,11° 8.31' N,77° 20.54' E,300.40m
176,Tiruppur,Tiruppur,Tiruppur,Permanent,Nallur Zone,Kangayam Road Nallur,9578126939,641606,Nallur,11° 5.95' N,77° 23.51' E,350.80m
177,Tiruppur,Tiruppur,Tiruppur,Permanent,Tiruppur  Rdo Office,Kumarn Road Tiruppur,9976419619,641601,Tiruppur,11° 6.39' N,77° 20.61' E,295.10m
178,Tiruppur,Tiruppur,Tiruppur,Permanent,Velampalayam,Velampalayam Zone 1 Avinashi Road Anupparpalayam,9095498590,641652,Anuppapalayam,11° 7.81' N,77° 18.69' E,73.10m
179,Tiruppur,Tiruppur,Tiruppur,Permanent,Thottipalayam Zone Office,Pichampalayam Pudur,8012285382,641603,Pichampalayampudur,11° 8.31' N,77° 20.54' E,274.80m
180,Tiruppur,Tiruppur,Tiruppur,Permanent,Corporation Hq,Coporation HQ Office Karuvam Palayam Road,9688128886,641604,Karuvampalayam,11° 6.07' N,77° 20.79' E,297.60m
181,Tiruppur,Udumalaipet,Udumalaipet,Permanent,Udumalaipet Municipality Office,Udumalaipet Municipality Office,9659068377,642126,Udumalaipet,10° 34.95' N,77° 14.67' E,385.90m
182,Tiruppur,Vellakoil(m),Kangeyam,Permanent,Vellakovil Municipal,Karur Main Road,9489215772,638111,Vellakoil,10° 56.95' N,77° 42.10' E,251.60m
183,Tiruvallur,Avadi,Poonamallee,Permanent,Avadi Municipality,Avadi Municipality N M Road,9677235954,600054,Avadi camp,13° 6.93' N,80° 6.21' E,65.60m
184,Tiruvallur,Ayappakkam,Ambattur,Permanent,Thiruverkadu Municipality,Thiruverkadu Municipality,9940503766,600077,Ayapakkam,13° 4.24' N,80° 7.25' E,42.70m
185,Tiruvallur,Poonamallee,Poonamallee,Permanent,Poonthamallee Municipality,Poonthamallee Municipalty Poonthamallee High Road,7601995506,600056,Poonamallee,13° 2.97' N,80° 6.35' E,56.80m
186,Tiruvallur,Thiruvallur,Thiruvallur,Permanent,Thiruvallur Dc Office,Thiruvallur Collector Office,9500505011,602001,Tiruvallur,13° 10.49' N,79° 36.79' E,99.30m
187,Tiruvallur,Thiruvallur,Thiruvallur,Permanent,Thiruvallur Municipal,J N Road Thiruvallur - 602001,8015715455,602001,Tiruvallur,13° 8.53' N,79° 53.68' E,2.20m
188,Tiruvallur,Tiruttani,Tirittani,Permanent,Thiruthani,Thiruthani Municipality,9994326903,631209,Tiruttani,13° 8.02' N,79° 54.52' E,68.20m
189,Tiruvannamalai,Arani,Arani,Permanent,Arani Municipality,"Arani Municipal Fort East Street, Near Govt Hospital & Suriyakulam",9842252679,632301,Arni,12° 40.29' N,79° 16.88' E,1079.00m
190,Tiruvannamalai,Cheyyar,Cheyyar,Permanent,Cheyyar Municipality,"Arcot Road, Near State Bank Of India,Cheyyar",9500143364,604407,Cheyyar,12° 39.92' N,79° 32.43' E,110.60m
191,Tiruvannamalai,Tiruvannamalai,Tiruvannamalai,Permanent,Municipality,Sannathi Street Annamalaiyar Temple Near,9489220571,606601,Tiruvannamalai,12° 13.86' N,79° 4.23' E,851.40m
192,Tiruvannamalai,Tiruvannamalai,Tiruvannamalai,Permanent,Thiruvannamalai Collerate,"Collcector Office, Vengikal,Thiruvannamalai",9994187146,606603,Sriramanashramam,12° 13.05' N,79° 3.59' E,184.00m
193,Tiruvannamalai,Vandavasi,Vandavasi,Permanent,Vandavasi Municipality,"Municipality Office, Opp Old Bus Stand, Vandavasi",9940700384,604408,Vandavasi,12° 30.44' N,79° 36.22' E,95.70m
194,Vellore,Adukkamparai,Vellore,Permanent,Adukkamparai,Panchayat Office,9688140345,632011,Tb Sanatorium,12° 50.90' N,79° 8.24' E,255.80m
195,Vellore,Ambur,Ambur,Permanent,Ambur Municipality,"Ambur Municipality, Nethaji Road",9171972689,635802,Ambur,12° 47.23' N,78° 43.09' E,316.80m
196,Vellore,Arakonam,Arakonam,Permanent,Arakonam Municipality,"Arakonam To Thiruttani Main Road, Gandhi Nagar",9003538284,631001,Arakkonam,13° 5.52' N,79° 39.60' E,182.20m
197,Vellore,Arcot,Arcot,Permanent,Arcot Municipal,Arcot Municipal Pec Jag Agraharam Street Opp Arcot Po Arcot,9629297821,632503,Arcot,12° 54.63' N,79° 19.65' E,229.10m
198,Vellore,Gudiyatham,Gudiyatham,Permanent,Gudiyatham Municipal,"Gudiyatham Municipal,Pernampet Road,Near Old Bus Stand",8098732387,632602,Gudiyattam,12° 56.68' N,78° 52.22' E,239.00m
199,Vellore,Jolarpet,Tirupathur,Permanent,Jolarpet Municipality,"Jolarpet Municipal Office ,GANDHI Road,Edaiyampatti,Jolarpettai",9787413872,635851,Jolarpettai,12° 34.16' N,78° 34.07' E,410.70m
200,Vellore,Melvisharam,Wallajah,Permanent,Melvisharam,"Melvisharam Municipal Office,Anna Salai Melvisharam",9245264780,632509,Melvisharam,12° 55.64' N,79° 15.94' E,200.40m
201,Vellore,Pernambut,Gudiyatham,Permanent,Pernambut Municipality,"Pernambut Municipality,Gudiyatham Road,Pernambut",8122995958,635810,Pernambut,12° 56.43' N,78° 43.20' E,732.90m
202,Vellore,Ranipet,Wallajah,Permanent,Ranipet Municipal,"Ranipet Municipal,Railway Station Road ,OPPO Govt Boys Higher  Sec School",9843748676,632401,Ranipet,12° 55.78' N,79° 20.02' E,193.50m
203,Vellore,SATHUVACHARI,Vellore,Permanent,Vellore Collector Office,Vellore Collector Office Campus,9600389323,632009,Sathuvachari,12° 56.14' N,79° 9.02' E,232.30m
204,Vellore,SATHUVACHARI,Vellore,Permanent,Sathuvachari Zone-2,Sathuvachari Old Municipal Sathuvachari Bus Stand,9994380619,632009,Sathuvachari,12° 56.13' N,79° 9.30' E,227.50m
205,Vellore,Tirupathur,Tirupathur,Permanent,Tirupathur Municipal,Tirupathur Sakthi Nagar,9600452043,635601,Tirupattur,12° 29.62' N,78° 33.89' E,389.50m
206,Vellore,Vaniyambadi,Vaniyambadi,Permanent,Vaniyambadi Municipality,"Vaniyambadi Municipality Newtown Railway Gate Behind C N A Road,Vaniyambadi",9942197931,635751,Vaniyambadi,12° 40.74' N,78° 36.71' E,529.10m
207,Vellore,Vellore,Vellore,Permanent,Old Municipality,Anna Salai Old Municipality Near Raja Theature,9790370248,632001,Vellore,12° 54.88' N,79° 7.98' E,198.10m
208,Vellore,Vellore,Vellore,Permanent,Vellore Hq,Infantary Road,9500534951,632001,Vellore,12° 54.66' N,79° 7.81' E,180.30m
209,Vellore,Vellore,Vellore,Permanent,Shenpakkamzone4,"Vellore Zone 4, Contonment Road,",9677695060,632001,Vellore,12° 54.65' N,79° 7.79' E,229.20m
210,Vellore,Vellore,Vellore,Permanent,Dharapadavedu Zone 1,Gandhinagar Municipal Viruthampat Police Station Back Side,9344460705,632006,Gandhinagar,12° 57.20' N,79° 8.44' E,234.30m
211,Vellore,Walajapet,Wallajah,Permanent,Walajapet Municipality,"Walajapet Municipality,Mbt Road, Near Walajapet Bus Stand",9790833280,632513,Walajapet,12° 55.52' N,79° 21.85' E,288.30m
212,Villupuram,Kallakkurichi,Kallakkurichi,Permanent,Spr-Elcot,Kallakurichi Municipal Anna Nagar Kallakurichi,9488044885,606202,Kallakurichi,12° 2.48' N,79° 10.01' E,126.10m
213,Villupuram,Tindivanam,Tindivanam,Permanent,Municipality,Tindivanam Municipality Hospital Road Tindivanam,8098626007,604001,Tindivanam,12° 14.04' N,79° 39.17' E,51.80m
214,Villupuram,Ulundurpet,Ulundurpettai,Permanent,Spr-Elcot,Bdo Ulundhurpettai,7639049613,606107,Ulundurpet,11° 51.94' N,79° 25.03' E,98.00m
215,Villupuram,Villupuram,Viluppuram,Permanent,Spr-Elcot,Master Plan Complex Villupuram Dc Office Villupuram-605602,9489277874,605602,Villupuram,11° 55.99' N,79° 28.95' E,142.70m
216,Villupuram,Villupuram,Viluppuram,Permanent,Municipality,Villupuram,9688615838,605602,Villupuram,11° 56.43' N,79° 29.67' E,1.10m
217,Virudhunagar,Alampatti,Sattur,Permanent,Sattur,Sattur Municipal,9787222274,626203,Sattur,9° 30.01' N,78° 5.86' E,82.90m
218,Virudhunagar,Rajapalayam,Rajapalayam,Permanent,Rajapalayam Municipal,Rajapalayam Municipal Virudhunagar,8695416444,626117,Rajapalayam,9° 26.99' N,77° 33.66' E,178.50m
219,Virudhunagar,Sivakasi,Sivakasi,Permanent,Sivakasimunicipal,Sivakasimunicipal   Virudhunagar,9843665748,626123,Sivakasi,9° 27.15' N,77° 47.64' E,109.80m
220,Virudhunagar,Srivilliputhur,Srivilliputhur,Camp-Mode,Srivilliputhur Municipal,63 Sakkaraikulam Srivilliputhur,8344453894,626125,Srivilliputhur,9° 30.42' N,77° 38.08' E,90.20m
221,Virudhunagar,Thiruthangal,Sivakasi,Permanent,Thiruthangal Municipal,"Thiruthangal Municipal Office,Thiruthangal.",8012908706,626130,Thiruthangal,9° 28.87' N,77° 48.76' E,154.40m
222,Virudhunagar,Virudhunagar,Virudhunagar,Permanent,Tn Govt Spr-Aadhaar Centre,"Madurai Main Road, District Collectorate",9655319182,626002,Virudhunagar Collectorate,9° 28.52' N,77° 56.67' E,74.50m
223,Virudhunagar,Virudhunagar,Virudhunagar,Camp-Mode,Virudhunagar Municipal,Near Karumathi Madam,7502445679,626001,Virudhunagar,9° 34.97' N,77° 57.22' E,41.50m
